ONEWEB-0027             
1 45432U 20020J   24076.76580793 -.00000001  00000+0 -35252-4 0  9999
2 45432  87.9256 169.4721 0002089 118.8252 241.3089 13.17646832198054
ONEWEB-0064             
1 45433U 20020K   24076.85867224 -.00000455  00000+0 -13209-2 0  9996
2 45433  87.9042 184.5770 0001668 115.5947 244.5354 13.11415279194900
ONEWEB-0018             
1 45434U 20020L   24076.81484956  .00001712  00000+0  47926-2 0  9998
2 45434  87.9044 184.5782 0002167  85.0433 275.0943 13.11422016194845
ONEWEB-0083             
1 45435U 20020M   24076.80348311 -.00000044  00000+0 -16046-3 0  9991
2 45435  87.9043 184.5609 0001882 109.0184 251.1148 13.11418435194882
ONEWEB-0095             
1 45436U 20020N   24076.79550558 -.00000372  00000+0 -10863-2 0  9992
2 45436  87.9041 184.6003 0002149 111.7461 248.3896 13.11417930194882
ONEWEB-0092             
1 45437U 20020P   24076.83920449  .00000209  00000+0  55430-3 0  9995
2 45437  87.9040 184.5723 0002185 109.4691 250.6673 13.11414389195008
ONEWEB-0085             
1 45438U 20020Q   24076.79701166 -.00002784  00000+0 -78945-2 0  9991
2 45438  87.9051 184.5854 0001532 105.2626 254.8671 13.11400463194880
ONEWEB-0096             
1 45439U 20020R   24076.80510582 -.00000003  00000+0 -45487-4 0  9993
2 45439  87.9044 184.5558 0001765  98.9513 261.1815 13.11418080194879
